BEIDOU-2 G3             
1 36590U 10024A   26181.67356272 -.00000128  00000+0  00000+0 0  9996
2 36590   4.5467  61.4609 0008004 357.0752 182.3578  1.00271065 58906
BADR-5                  
1 36592U 10025A   26181.84072557  .00000164  00000+0  00000+0 0  9998
2 36592   0.0520 122.0305 0004235  65.8468  64.1639  1.00269343 53351
COMS 1                  
1 36744U 10032A   26181.80416729 -.00000044  00000+0  00000+0 0  9992
2 36744   4.8382  75.1972 0011864  13.5533 138.8109  0.99168462 51227
ARABSAT-5A              
1 36745U 10032B   26181.84072557  .00000164  00000+0  00000+0 0  9996
2 36745   0.0793  56.8689 0005710  58.6773 136.5118  1.00273805 58786
ECHOSTAR 15             
1 36792U 10034A   26181.60496883  .00000010  00000+0  00000+0 0  9996
2 36792   0.0405 282.4921 0002148 166.2354 288.9318  1.00273706 58455
BEIDOU-2 IGSO-1         
1 36828U 10036A   26181.37475325 -.00000082  00000+0  00000+0 0  9990
2 36828  54.3057 162.8407 0058827 225.1163 132.8817  1.00268449 58222
NILESAT 201             
1 36830U 10037A   26180.65835366 -.00000047  00000+0  00000+0 0  9990
2 36830   0.0376 117.2796 0005321   5.7081  24.7564  1.00271661 58503
RASCOM-QAF 1R           
1 36831U 10037B   26181.80096064  .00000029  00000+0  00000+0 0  9992
2 36831   0.0028 105.2946 0006488 348.4665 116.3503  1.00270900 58441
AEHF-1 (USA 214)        
1 36868U 10039A   26181.84072557  .00000152  00000+0  00000+0 0  9996
2 36868   8.2526  67.8662 0004224  28.0355 155.6367  1.00268568 53799
XM-5                    
1 37185U 10053A   26181.10392142 -.00000012  00000+0  00000+0 0  9995
2 37185   0.0699 268.8148 0002500 286.8802   4.7004  1.00272097 57610
BSAT-3B                 
1 37207U 10056B   26181.75088388 -.00000339  00000+0  00000+0 0  9990
2 37207   0.0659 236.5817 0002250 290.0626 132.3280  1.00270347 52232
BEIDOU-2 G4             
1 37210U 10057A   26181.63694215 -.00000105  00000+0  00000+0 0  9995
2 37210   3.6793  68.8718 0004811 190.1200  48.9890  1.00271585 57423
SKYTERRA 1              
1 37218U 10061A   26181.59810145 -.00000111  00000+0  00000+0 0  9992
2 37218   5.1524  50.8321 0002376  33.3282 308.5188  1.00269841 57329
HYLAS 1                 
1 37237U 10065A   26181.30407082  .00000096  00000+0  00000+0 0  9999
2 37237   5.6751  72.8623 0001043 340.0885 348.6881  1.00272596  7010
INTELSAT 17 (IS-17)     
1 37238U 10065B   26181.81345777  .00000009  00000+0  00000+0 0  9992
2 37238   0.0070 227.4444 0002525 234.5720 175.6886  1.00270464 53380
BEIDOU-2 IGSO-2         
1 37256U 10068A   26181.67923229 -.00000187  00000+0  00000+0 0  9991
2 37256  47.5224 271.6646 0056566 213.8845 145.9362  1.00279341 56930
EUTELSAT KA-SAT 9A      
1 37258U 10069A   26180.66156034  .00000069  00000+0  00000+0 0  9992
2 37258   0.0604  11.5797 0004440 130.3911  22.9217  1.00251079 44137
HISPASAT 30W-5          
1 37264U 10070A   26181.79443250 -.00000205  00000+0  00000+0 0  9998
2 37264   0.0378 108.9010 0005848   3.6207  62.3351  1.00272115 53326
KOREASAT 6              
1 37265U 10070B   26181.76076391 -.00000101  00000+0  00000+0 0  9999
2 37265   0.0176  35.5670 0002700  74.1321 242.8823  1.00272354 56905
BEIDOU-2 IGSO-3         
1 37384U 11013A   26180.53855913 -.00000164  00000+0  00000+0 0  9997
2 37384  62.4244  40.0349 0035201 183.8161 354.9022  1.00265262 55782
INTELSAT 28 (IS-28)     
1 37392U 11016A   26181.79408583 -.00000216  00000+0  00000+0 0  9993
2 37392   1.8397  82.4677 0004022  16.8922  73.6250  1.00270484 53427
YAHSAT 1A               
1 37393U 11016B   26181.16912192  .00000000  00000+0  00000+0 0  9991
2 37393   0.0228  36.2688 0003498  71.1969 284.1558  1.00269168 42539
SBIRS GEO-1 (USA 230)   
1 37481U 11019A   26181.81035294  .00000107  00000+0  00000+0 0  9991
2 37481   4.5655  53.1166 0001872  39.0449 170.2334  1.00272165 55531
TELSTAR 14R             
1 37602U 11021A   26181.78793249 -.00000269  00000+0  00000+0 0  9996
2 37602   0.0512  81.5054 0002369 353.0218  64.9907  1.00271431 55973
GSAT-8                  
1 37605U 11022A   26181.45483030  .00000093  00000+0  00000+0 0  9992
2 37605   2.1638  81.6735 0001681 178.4527 237.2308  1.00274337 53351
ST-2                    
1 37606U 11022B   26181.82594358  .00000000  00000+0  00000+0 0  9998
2 37606   0.0266  45.6938 0001803  66.0159 192.5483  1.00270060 55415
ZHONGXING-10            
1 37677U 11026A   26181.83864274 -.00000179  00000+0  00000+0 0  9996
2 37677   1.0815  84.0625 0003816   9.9106 212.3723  1.00272356 55135
SES-3                   
1 37748U 11035A   26181.70852575 -.00000092  00000+0  00000+0 0  9996
2 37748   1.3601  82.9545 0002457   6.9246 340.9646  1.00272456 54727
KAZSAT-2                
1 37749U 11035B   26181.38978148 -.00000187  00000+0  00000+0 0  9991
2 37749   0.0138  73.4446 0001716  77.8892 353.9364  1.00274357 53536
BEIDOU-2 IGSO-4         
1 37763U 11038A   26181.72414455  .00000016  00000+0  00000+0 0  9994
2 37763  54.6038 165.5522 0159646 231.3920 236.4479  1.00282941 54787
ASTRA 1N                
1 37775U 11041A   26181.80416729  .00000130  00000+0  00000+0 0  9993
2 37775   0.0872  42.3043 0005940  55.9656 129.2708  1.00272154 44669
BSAT-3C (JCSAT-110R)    
1 37776U 11041B   26181.75088388 -.00000340  00000+0  00000+0 0  9998
2 37776   0.0159 347.6769 0000613 166.3261 145.0769  1.00269993 50606
